[{"OBJECT_NAME":"STARLINK-5708","OBJECT_ID":"2023-015X","EPOCH":"2026-03-09T14:28:56.059104","MEAN_MOTION":15.02528755,"ECCENTRICITY":0.0001159,"INCLINATION":43.0054,"RA_OF_ASC_NODE":326.2339,"ARG_OF_PERICENTER":261.8958,"MEAN_ANOMALY":98.1752,"EPHEMERIS_TYPE":0,"CLASSIFICATION_TYPE":"U","NORAD_CAT_ID":55470,"ELEMENT_SET_NO":999,"REV_AT_EPOCH":17074,"BSTAR":0.00020067,"MEAN_MOTION_DOT":2.508e-5,"MEAN_MOTION_DDOT":0},{"OBJECT_NAME":"FENGYUN 1C DEB","OBJECT_ID":"1999-025DFY","EPOCH":"2026-03-03T06:55:21.899424","MEAN_MOTION":15.25006274,"ECCENTRICITY":0.01038057,"INCLINATION":98.9901,"RA_OF_ASC_NODE":88.6648,"ARG_OF_PERICENTER":65.5781,"MEAN_ANOMALY":295.624,"EPHEMERIS_TYPE":0,"CLASSIFICATION_TYPE":"U","NORAD_CAT_ID":33687,"ELEMENT_SET_NO":999,"REV_AT_EPOCH":72733,"BSTAR":0.001670914,"MEAN_MOTION_DOT":0.00048845,"MEAN_MOTION_DDOT":0}]
